{
    "links": {
        "self": "http://www.neowsapp.com/rest/v1/neo/54075317?api_key=iIulBulltgU6a56xZRHN4H3l9WmuAYTsLGpBGhQ2"
    },
    "id": "54075317",
    "neo_reference_id": "54075317",
    "name": "(2020 UR1)",
    "designation": "2020 UR1",
    "nasa_jpl_url": "http://ssd.jpl.nasa.gov/sbdb.cgi?sstr=54075317",
    "absolute_magnitude_h": 25.48,
    "estimated_diameter": {
        "kilometers": {
            "estimated_diameter_min": 0.0213086029,
            "estimated_diameter_max": 0.0476474846
        },
        "meters": {
            "estimated_diameter_min": 21.3086029248,
            "estimated_diameter_max": 47.6474846455
        },
        "miles": {
            "estimated_diameter_min": 0.0132405479,
            "estimated_diameter_max": 0.0296067652
        },
        "feet": {
            "estimated_diameter_min": 69.9101168199,
            "estimated_diameter_max": 156.3237735244
        }
    },
    "is_potentially_hazardous_asteroid": false,
    "close_approach_data": [
        {
            "close_approach_date": "2012-11-05",
            "close_approach_date_full": "2012-Nov-05 11:55",
            "epoch_date_close_approach": 1352116500000,
            "relative_velocity": {
                "kilometers_per_second": "19.4850595689",
                "kilometers_per_hour": "70146.2144479687",
                "miles_per_hour": "43586.1297496281"
            },
            "miss_distance": {
                "astronomical": "0.4120437155",
                "lunar": "160.2850053295",
                "kilometers": "61640862.185685985",
                "miles": "38301855.681537193"
            },
            "orbiting_body": "Earth"
        },
        {
            "close_approach_date": "2014-10-31",
            "close_approach_date_full": "2014-Oct-31 00:49",
            "epoch_date_close_approach": 1414716540000,
            "relative_velocity": {
                "kilometers_per_second": "16.1224450666",
                "kilometers_per_hour": "58040.8022399324",
                "miles_per_hour": "36064.2973695847"
            },
            "miss_distance": {
                "astronomical": "0.2975032557",
                "lunar": "115.7287664673",
                "kilometers": "44505853.370785359",
                "miles": "27654654.9212175942"
            },
            "orbiting_body": "Earth"
        },
        {
            "close_approach_date": "2016-10-24",
            "close_approach_date_full": "2016-Oct-24 05:23",
            "epoch_date_close_approach": 1477286580000,
            "relative_velocity": {
                "kilometers_per_second": "12.894291697",
                "kilometers_per_hour": "46419.4501093307",
                "miles_per_hour": "28843.2410971005"
            },
            "miss_distance": {
                "astronomical": "0.1910336965",
                "lunar": "74.3121079385",
                "kilometers": "28578234.094626455",
                "miles": "17757691.231316879"
            },
            "orbiting_body": "Earth"
        },
        {
            "close_approach_date": "2018-10-16",
            "close_approach_date_full": "2018-Oct-16 16:04",
            "epoch_date_close_approach": 1539705840000,
            "relative_velocity": {
                "kilometers_per_second": "9.8139409459",
                "kilometers_per_hour": "35330.1874052216",
                "miles_per_hour": "21952.8045018723"
            },
            "miss_distance": {
                "astronomical": "0.0929999175",
                "lunar": "36.1769679075",
                "kilometers": "13912589.568175725",
                "miles": "8644882.289146005"
            },
            "orbiting_body": "Earth"
        },
        {
            "close_approach_date": "2020-10-04",
            "close_approach_date_full": "2020-Oct-04 07:35",
            "epoch_date_close_approach": 1601796900000,
            "relative_velocity": {
                "kilometers_per_second": "7.2742858522",
                "kilometers_per_hour": "26187.4290680124",
                "miles_per_hour": "16271.8500228436"
            },
            "miss_distance": {
                "astronomical": "0.0310503378",
                "lunar": "12.0785814042",
                "kilometers": "4645064.397660486",
                "miles": "2886309.1767712668"
            },
            "orbiting_body": "Earth"
        }
    ],
    "orbital_data": {
        "orbit_id": "5",
        "orbit_determination_date": "2020-11-12 05:43:01",
        "first_observation_date": "2020-10-15",
        "last_observation_date": "2020-11-08",
        "data_arc_in_days": 24,
        "observations_used": 35,
        "orbit_uncertainty": "7",
        "minimum_orbit_intersection": ".0305868",
        "jupiter_tisserand_invariant": "4.309",
        "epoch_osculation": "2459000.5",
        "eccentricity": ".3854547379233282",
        "semi_major_axis": "1.579980664388692",
        "inclination": "2.493438759802106",
        "ascending_node_longitude": "233.0447706787331",
        "orbital_period": "725.3975510862324",
        "perihelion_distance": ".9709696314728226",
        "perihelion_argument": "107.6209032681768",
        "aphelion_distance": "2.18899169730456",
        "perihelion_time": "2459101.178643047043",
        "mean_anomaly": "310.0352442013869",
        "mean_motion": ".4962795910475918",
        "equinox": "J2000",
        "orbit_class": {
            "orbit_class_type": "APO",
            "orbit_class_description": "Near-Earth asteroid orbits which cross the Earth’s orbit similar to that of 1862 Apollo",
            "orbit_class_range": "a (semi-major axis) > 1.0 AU; q (perihelion) < 1.017 AU"
        }
    },
    "is_sentry_object": false
}